start=new Date('2022-02-07T00:00:00.000Z').valueOf();
sats=[{"MEAN_ANOMALY":"294.4065","ELEMENT_SET_NO":"999","TIME_SYSTEM":"UTC","PERIAPSIS":"546.154","SEMIMAJOR_AXIS":"6925.387","NORAD_CAT_ID":"44719","CLASSIFICATION_TYPE":"U","GP_ID":"195440933","REF_FRAME":"TEME","DECAY_DATE":null,"MEAN_MOTION":"15.06387452","LAUNCH_DATE":"2019-11-11","BSTAR":"-0.00008560500000","INCLINATION":"53.0559","OBJECT_ID":"2019-074G","CENTER_NAME":"EARTH","MEAN_ELEMENT_THEORY":"SGP4","REV_AT_EPOCH":"12502","MEAN_MOTION_DDOT":"0.0000000000000","TLE_LINE1":"1 44719U 19074G   22037.87998691 -.00001556  00000-0 -85605-4 0  9994","COUNTRY_CODE":"US","PERIOD":"95.593","ARG_OF_PERICENTER":"65.7089","OBJECT_TYPE":"PAYLOAD","APOAPSIS":"548.350","TLE_LINE2":"2 44719  53.0559  43.6106 0001585  65.7089 294.4065 15.06387452125029","EPOCH":"2022-02-06T21:07:10.869024","EPHEMERIS_TYPE":"0","RCS_SIZE":"LARGE","RA_OF_ASC_NODE":"43.6106","FILE":"3293822","MEAN_MOTION_DOT":"-0.00001556","SITE":"AFETR","OBJECT_NAME":"STARLINK-1013","ECCENTRICITY":"0.00015850"},{"FILE":"3293555","OBJECT_NAME":"STARLINK-1014","SITE":"AFETR","MEAN_MOTION_DOT":"-0.00001441","RCS_SIZE":"LARGE","RA_OF_ASC_NODE":"46.2054","ECCENTRICITY":"0.00016750","ARG_OF_PERICENTER":"69.9520","PERIOD":"95.593","MEAN_MOTION_DDOT":"0.0000000000000","REV_AT_EPOCH":"12381","COUNTRY_CODE":"US","TLE_LINE1":"1 44720U 19074H   22037.30129620 -.00001441  00000-0 -77857-4 0  9995","APOAPSIS":"548.407","EPHEMERIS_TYPE":"0","EPOCH":"2022-02-06T07:13:51.991680","TLE_LINE2":"2 44720  53.0564  46.2054 0001675  69.9520 290.1649 15.06389110123813","OBJECT_TYPE":"PAYLOAD","DECAY_DATE":null,"LAUNCH_DATE":"2019-11-11","INCLINATION":"53.0564","BSTAR":"-0.00007785700000","MEAN_MOTION":"15.06389110","CENTER_NAME":"EARTH","MEAN_ELEMENT_THEORY":"SGP4","OBJECT_ID":"2019-074H","PERIAPSIS":"546.087","TIME_SYSTEM":"UTC","MEAN_ANOMALY":"290.1649","ELEMENT_SET_NO":"999","NORAD_CAT_ID":"44720","SEMIMAJOR_AXIS":"6925.382","REF_FRAME":"TEME","GP_ID":"195410067","CLASSIFICATION_TYPE":"U"},{"CLASSIFICATION_TYPE":"U","GP_ID":"195408815","REF_FRAME":"TEME","SEMIMAJOR_AXIS":"6925.339","NORAD_CAT_ID":"44721","ELEMENT_SET_NO":"999","MEAN_ANOMALY":"285.2279","PERIAPSIS":"546.198","TIME_SYSTEM":"UTC","OBJECT_ID":"2019-074J","CENTER_NAME":"EARTH","MEAN_ELEMENT_THEORY":"SGP4","MEAN_MOTION":"15.06402969","BSTAR":"0.00059563000000","LAUNCH_DATE":"2019-11-11","INCLINATION":"53.0557","DECAY_DATE":null,"OBJECT_TYPE":"PAYLOAD","EPOCH":"2022-02-06T06:57:56.127744","TLE_LINE2":"2 44721  53.0557  46.2492 0001453  74.8871 285.2279 15.06402969123801","EPHEMERIS_TYPE":"0","APOAPSIS":"548.211","TLE_LINE1":"1 44721U 19074J   22037.29023296  .00008602  00000-0  59563-3 0  9993","COUNTRY_CODE":"US","REV_AT_EPOCH":"12380","MEAN_MOTION_DDOT":"0.0000000000000","ARG_OF_PERICENTER":"74.8871","PERIOD":"95.592","ECCENTRICITY":"0.00014530","RA_OF_ASC_NODE":"46.2492","RCS_SIZE":"LARGE","OBJECT_NAME":"STARLINK-1015","SITE":"AFETR","MEAN_MOTION_DOT":"0.00008602","FILE":"3293555"},{"COUNTRY_CODE":"US","TLE_LINE1":"1 44722U 19074K   22037.36026622 -.00001368  00000-0 -72944-4 0  9991","MEAN_MOTION_DDOT":"0.0000000000000","REV_AT_EPOCH":"12382","ARG_OF_PERICENTER":"80.9090","PERIOD":"95.592","OBJECT_TYPE":"PAYLOAD","EPHEMERIS_TYPE":"0","TLE_LINE2":"2 44722  53.0549  45.9428 0001461  80.9090 279.2064 15.06398576123823","EPOCH":"2022-02-06T08:38:47.001408","APOAPSIS":"548.230","RA_OF_ASC_NODE":"45.9428","RCS_SIZE":"LARGE","SITE":"AFETR","OBJECT_NAME":"STARLINK-1016","MEAN_MOTION_DOT":"-0.00001368","FILE":"3293555","ECCENTRICITY":"0.00014610","ELEMENT_SET_NO":"999","MEAN_ANOMALY":"279.2064","TIME_SYSTEM":"UTC","PERIAPSIS":"546.206","REF_FRAME":"TEME","GP_ID":"195409065","CLASSIFICATION_TYPE":"U","NORAD_CAT_ID":"44722","SEMIMAJOR_AXIS":"6925.353","INCLINATION":"53.0549","LAUNCH_DATE":"2019-11-11","BSTAR":"-0.00007294400000","MEAN_MOTION":"15.06398576","DECAY_DATE":null,"OBJECT_ID":"2019-074K","MEAN_ELEMENT_THEORY":"SGP4","CENTER_NAME":"EARTH"},{"MEAN_ANOMALY":"290.8462","ELEMENT_SET_NO":"999","PERIAPSIS":"546.138","TIME_SYSTEM":"UTC","NORAD_CAT_ID":"44723","SEMIMAJOR_AXIS":"6925.313","GP_ID":"195440434","REF_FRAME":"TEME","CLASSIFICATION_TYPE":"U","DECAY_DATE":null,"INCLINATION":"53.0538","LAUNCH_DATE":"2019-11-11","BSTAR":"0.00027674000000","MEAN_MOTION":"15.06411660","OBJECT_ID":"2019-074L","MEAN_ELEMENT_THEORY":"SGP4","CENTER_NAME":"EARTH","MEAN_MOTION_DDOT":"0.0000000000000","REV_AT_EPOCH":"12389","TLE_LINE1":"1 44723U 19074L   22037.83942590  .00003844  00000-0  27674-3 0  9993","COUNTRY_CODE":"US","ARG_OF_PERICENTER":"69.2688","PERIOD":"95.591","OBJECT_TYPE":"PAYLOAD","APOAPSIS":"548.217","EPHEMERIS_TYPE":"0","EPOCH":"2022-02-06T20:08:46.397760","TLE_LINE2":"2 44723  53.0538  43.8079 0001501  69.2688 290.8462 15.06411660123897","RCS_SIZE":"LARGE","RA_OF_ASC_NODE":"43.8079","FILE":"3293822","SITE":"AFETR","MEAN_MOTION_DOT":"0.00003844","OBJECT_NAME":"STARLINK-1017","ECCENTRICITY":"0.00015010"},{"EPHEMERIS_TYPE":"0","TLE_LINE2":"2 44724  53.0560  44.2607 0001569  65.1635 294.9517 15.06390183123876","EPOCH":"2022-02-06T17:40:10.971840","APOAPSIS":"548.330","OBJECT_TYPE":"PAYLOAD","ARG_OF_PERICENTER":"65.1635","PERIOD":"95.593","TLE_LINE1":"1 44724U 19074M   22037.73623810 -.00001366  00000-0 -72872-4 0  9994","COUNTRY_CODE":"US","MEAN_MOTION_DDOT":"0.0000000000000","REV_AT_EPOCH":"12387","ECCENTRICITY":"0.00015690","OBJECT_NAME":"STARLINK-1019","SITE":"AFETR","MEAN_MOTION_DOT":"-0.00001366","FILE":"3293822","RA_OF_ASC_NODE":"44.2607","RCS_SIZE":"LARGE","GP_ID":"195441186","REF_FRAME":"TEME","CLASSIFICATION_TYPE":"U","NORAD_CAT_ID":"44724","SEMIMAJOR_AXIS":"6925.379","TIME_SYSTEM":"UTC","PERIAPSIS":"546.157","ELEMENT_SET_NO":"999","MEAN_ANOMALY":"294.9517","MEAN_ELEMENT_THEORY":"SGP4","OBJECT_ID":"2019-074M","CENTER_NAME":"EARTH","BSTAR":"-0.00007287200000","LAUNCH_DATE":"2019-11-11","INCLINATION":"53.0560","MEAN_MOTION":"15.06390183","DECAY_DATE":null},{"LAUNCH_DATE":"2019-11-11","BSTAR":"-0.00006568200000","INCLINATION":"53.0549","MEAN_MOTION":"15.06390983","DECAY_DATE":null,"OBJECT_ID":"2019-074N","MEAN_ELEMENT_THEORY":"SGP4","CENTER_NAME":"EARTH","PERIAPSIS":"546.010","TIME_SYSTEM":"UTC","ELEMENT_SET_NO":"999","MEAN_ANOMALY":"300.9031","REF_FRAME":"TEME","GP_ID":"195441936","CLASSIFICATION_TYPE":"U","NORAD_CAT_ID":"44725","SEMIMAJOR_AXIS":"6925.376","SITE":"AFETR","MEAN_MOTION_DOT":"-0.00001260","OBJECT_NAME":"STARLINK-1020","FILE":"3293822","RA_OF_ASC_NODE":"63.9263","RCS_SIZE":"LARGE","ECCENTRICITY":"0.00017780","ARG_OF_PERICENTER":"59.2133","PERIOD":"95.593","COUNTRY_CODE":"US","TLE_LINE1":"1 44725U 19074N   22037.80811302 -.00001260  00000-0 -65682-4 0  9992","MEAN_MOTION_DDOT":"0.0000000000000","REV_AT_EPOCH":"12360","EPHEMERIS_TYPE":"0","EPOCH":"2022-02-06T19:23:40.964928","TLE_LINE2":"2 44725  53.0549  63.9263 0001778  59.2133 300.9031 15.06390983123607","APOAPSIS":"548.473","OBJECT_TYPE":"PAYLOAD"},{"LAUNCH_DATE":"2019-11-11","INCLINATION":"53.0556","BSTAR":"-0.00023983000000","MEAN_MOTION":"15.06374051","DECAY_DATE":null,"CENTER_NAME":"EARTH","OBJECT_ID":"2019-074P","MEAN_ELEMENT_THEORY":"SGP4","ELEMENT_SET_NO":"999","MEAN_ANOMALY":"290.0474","PERIAPSIS":"546.217","TIME_SYSTEM":"UTC","GP_ID":"195440684","REF_FRAME":"TEME","CLASSIFICATION_TYPE":"U","NORAD_CAT_ID":"44726","SEMIMAJOR_AXIS":"6925.428","RA_OF_ASC_NODE":"44.2863","RCS_SIZE":"LARGE","SITE":"AFETR","OBJECT_NAME":"STARLINK-1021","MEAN_MOTION_DOT":"-0.00003849","FILE":"3293822","ECCENTRICITY":"0.00015540","COUNTRY_CODE":"US","TLE_LINE1":"1 44726U 19074P   22037.73257268 -.00003849  00000-0 -23983-3 0  9992","MEAN_MOTION_DDOT":"0.0000000000000","REV_AT_EPOCH":"12387","ARG_OF_PERICENTER":"70.0682","PERIOD":"95.594","OBJECT_TYPE":"PAYLOAD","EPHEMERIS_TYPE":"0","EPOCH":"2022-02-06T17:34:54.279552","TLE_LINE2":"2 44726  53.0556  44.2863 0001554  70.0682 290.0474 15.06374051123873","APOAPSIS":"548.369"},{"REF_FRAME":"TEME","GP_ID":"195440934","CLASSIFICATION_TYPE":"U","NORAD_CAT_ID":"44727","SEMIMAJOR_AXIS":"6925.375","TIME_SYSTEM":"UTC","PERIAPSIS":"546.073","ELEMENT_SET_NO":"999","MEAN_ANOMALY":"302.2726","OBJECT_ID":"2019-074Q","MEAN_ELEMENT_THEORY":"SGP4","CENTER_NAME":"EARTH","LAUNCH_DATE":"2019-11-11","INCLINATION":"53.0587","BSTAR":"0.00015992000000","MEAN_MOTION":"15.06391280","DECAY_DATE":null,"EPHEMERIS_TYPE":"0","TLE_LINE2":"2 44727  53.0587  83.5194 0001686  57.8426 302.2726 15.06391280123358","EPOCH":"2022-02-06T21:37:39.779040","APOAPSIS":"548.408","OBJECT_TYPE":"PAYLOAD","PERIOD":"95.593","ARG_OF_PERICENTER":"57.8426","COUNTRY_CODE":"US","TLE_LINE1":"1 44727U 19074Q   22037.90115485  .00002101  00000-0  15992-3 0  9995","MEAN_MOTION_DDOT":"0.0000000000000","REV_AT_EPOCH":"12335","ECCENTRICITY":"0.00016860","SITE":"AFETR","MEAN_MOTION_DOT":"0.00002101","OBJECT_NAME":"STARLINK-1022","FILE":"3293822","RA_OF_ASC_NODE":"83.5194","RCS_SIZE":"LARGE"},{"CENTER_NAME":"EARTH","OBJECT_ID":"2019-074S","MEAN_ELEMENT_THEORY":"SGP4","LAUNCH_DATE":"2019-11-11","INCLINATION":"53.0016","BSTAR":"0.00074751000000","MEAN_MOTION":"15.09359128","DECAY_DATE":null,"REF_FRAME":"TEME","GP_ID":"195441686","CLASSIFICATION_TYPE":"U","NORAD_CAT_ID":"44729","SEMIMAJOR_AXIS":"6916.294","TIME_SYSTEM":"UTC","PERIAPSIS":"537.695","ELEMENT_SET_NO":"999","MEAN_ANOMALY":"202.1338","ECCENTRICITY":"0.00006710","SITE":"AFETR","MEAN_MOTION_DOT":"0.00011800","OBJECT_NAME":"STARLINK-1024","FILE":"3293822","RA_OF_ASC_NODE":"59.0610","RCS_SIZE":"LARGE","EPHEMERIS_TYPE":"0","TLE_LINE2":"2 44729  53.0016  59.0610 0000671 157.9681 202.1338 15.09359128123643","EPOCH":"2022-02-06T18:11:16.628640","APOAPSIS":"538.623","OBJECT_TYPE":"PAYLOAD","ARG_OF_PERICENTER":"157.9681","PERIOD":"95.405","TLE_LINE1":"1 44729U 19074S   22037.75783135  .00011800  00000-0  74751-3 0  9997","COUNTRY_CODE":"US","MEAN_MOTION_DDOT":"0.0000000000000","REV_AT_EPOCH":"12364"}];
